{
  "type": "FeatureCollection",
  "features": [
    {
      "type": "Feature",
      "properties": {
        "norad_id": 58647,
        "name": "TIANMU-1 13",
        "group": "weather",
        "lat": -51.48800086785681,
        "lon": -172.42490510697883,
        "alt_km": 494.4655217924419,
        "timestamp": "2025-12-23T11:34:47.829046+00:00",
        "meta_object_name": "TIANMU-1 13",
        "meta_object_id": "2023-205C",
        "meta_epoch": "2025-12-23T04:15:52.728768",
        "meta_mean_motion": 15.24648625,
        "meta_eccentricity": 0.0006481,
        "meta_inclination": 97.3609,
        "meta_ra_of_asc_node": 16.6247,
        "meta_arg_of_pericenter": 221.1628,
        "meta_mean_anomaly": 138.9121,
        "meta_ephemeris_type": 0,
        "meta_classification_type": "U",
        "meta_norad_cat_id": 58647,
        "meta_element_set_no": 999,
        "meta_rev_at_epoch": 11066,
        "meta_bstar": 0.00026795,
        "meta_mean_motion_dot": 6.549e-05,
        "meta_mean_motion_ddot": 0,
        "tle_line1": "1 58647U 23205C   25357.17769362  .00006549  00000+0  26795-3 0  9990",
        "tle_line2": "2 58647  97.3609  16.6247 0006481 221.1628 138.9121 15.24648625110665"
      },
      "geometry": {
        "type": "Point",
        "coordinates": [
          -172.42490510697883,
          -51.48800086785681
        ]
      }
    },
    {
      "type": "Feature",
      "properties": {
        "norad_id": 58648,
        "name": "TIANMU-1 14",
        "group": "weather",
        "lat": -37.271202986862384,
        "lon": 21.903631481599632,
        "alt_km": 498.87047142903157,
        "timestamp": "2025-12-23T11:34:47.829062+00:00",
        "meta_object_name": "TIANMU-1 14",
        "meta_object_id": "2023-205D",
        "meta_epoch": "2025-12-23T05:26:38.969088",
        "meta_mean_motion": 15.24632212,
        "meta_eccentricity": 0.0007197,
        "meta_inclination": 97.3542,
        "meta_ra_of_asc_node": 16.0121,
        "meta_arg_of_pericenter": 227.1223,
        "meta_mean_anomaly": 132.9411,
        "meta_ephemeris_type": 0,
        "meta_classification_type": "U",
        "meta_norad_cat_id": 58648,
        "meta_element_set_no": 999,
        "meta_rev_at_epoch": 11067,
        "meta_bstar": 0.00027938,
        "meta_mean_motion_dot": 6.83e-05,
        "meta_mean_motion_ddot": 0,
        "tle_line1": "1 58648U 23205D   25357.22683992  .00006830  00000+0  27938-3 0  9994",
        "tle_line2": "2 58648  97.3542  16.0121 0007197 227.1223 132.9411 15.24632212110671"
      },
      "geometry": {
        "type": "Point",
        "coordinates": [
          21.903631481599632,
          -37.271202986862384
        ]
      }
    },
    {
      "type": "Feature",
      "properties": {
        "norad_id": 58660,
        "name": "TIANMU-1 19",
        "group": "weather",
        "lat": -12.415059424144761,
        "lon": 110.14792929926492,
        "alt_km": 488.72929011024644,
        "timestamp": "2025-12-23T11:34:47.829077+00:00",
        "meta_object_name": "TIANMU-1 19",
        "meta_object_id": "2023-208A",
        "meta_epoch": "2025-12-23T05:20:52.944000",
        "meta_mean_motion": 15.28032102,
        "meta_eccentricity": 0.0004668,
        "meta_inclination": 97.4393,
        "meta_ra_of_asc_node": 108.2404,
        "meta_arg_of_pericenter": 207.5252,
        "meta_mean_anomaly": 152.5741,
        "meta_ephemeris_type": 0,
        "meta_classification_type": "U",
        "meta_norad_cat_id": 58660,
        "meta_element_set_no": 999,
        "meta_rev_at_epoch": 11042,
        "meta_bstar": 0.00036445,
        "meta_mean_motion_dot": 9.896e-05,
        "meta_mean_motion_ddot": 0,
        "tle_line1": "1 58660U 23208A   25357.22283500  .00009896  00000+0  36445-3 0  9990",
        "tle_line2": "2 58660  97.4393 108.2404 0004668 207.5252 152.5741 15.28032102110425"
      },
      "geometry": {
        "type": "Point",
        "coordinates": [
          110.14792929926492,
          -12.415059424144761
        ]
      }
    },
    {
      "type": "Feature",
      "properties": {
        "norad_id": 58661,
        "name": "TIANMU-1 20",
        "group": "weather",
        "lat": 70.82236749945537,
        "lon": -48.994148490910256,
        "alt_km": 473.1436200775752,
        "timestamp": "2025-12-23T11:34:47.829092+00:00",
        "meta_object_name": "TIANMU-1 20",
        "meta_object_id": "2023-208B",
        "meta_epoch": "2025-12-23T04:49:42.367584",
        "meta_mean_motion": 15.29221624,
        "meta_eccentricity": 0.0006726,
        "meta_inclination": 97.4332,
        "meta_ra_of_asc_node": 108.6767,
        "meta_arg_of_pericenter": 222.3371,
        "meta_mean_anomaly": 137.7351,
        "meta_ephemeris_type": 0,
        "meta_classification_type": "U",
        "meta_norad_cat_id": 58661,
        "meta_element_set_no": 999,
        "meta_rev_at_epoch": 11049,
        "meta_bstar": 0.00037421,
        "meta_mean_motion_dot": 0.00010545,
        "meta_mean_motion_ddot": 0,
        "tle_line1": "1 58661U 23208B   25357.20118481  .00010545  00000+0  37421-3 0  9992",
        "tle_line2": "2 58661  97.4332 108.6767 0006726 222.3371 137.7351 15.29221624110498"
      },
      "geometry": {
        "type": "Point",
        "coordinates": [
          -48.994148490910256,
          70.82236749945537
        ]
      }
    },
    {
      "type": "Feature",
      "properties": {
        "norad_id": 58662,
        "name": "TIANMU-1 21",
        "group": "weather",
        "lat": -29.903543928370375,
        "lon": -73.39441377663537,
        "alt_km": 472.2316120052101,
        "timestamp": "2025-12-23T11:34:47.829110+00:00",
        "meta_object_name": "TIANMU-1 21",
        "meta_object_id": "2023-208C",
        "meta_epoch": "2025-12-23T04:23:38.721984",
        "meta_mean_motion": 15.31765018,
        "meta_eccentricity": 0.0006351,
        "meta_inclination": 97.438,
        "meta_ra_of_asc_node": 110.614,
        "meta_arg_of_pericenter": 216.6536,
        "meta_mean_anomaly": 143.4272,
        "meta_ephemeris_type": 0,
        "meta_classification_type": "U",
        "meta_norad_cat_id": 58662,
        "meta_element_set_no": 999,
        "meta_rev_at_epoch": 11059,
        "meta_bstar": 0.00039655,
        "meta_mean_motion_dot": 0.00012097,
        "meta_mean_motion_ddot": 0,
        "tle_line1": "1 58662U 23208C   25357.18308706  .00012097  00000+0  39655-3 0  9996",
        "tle_line2": "2 58662  97.4380 110.6140 0006351 216.6536 143.4272 15.31765018110593"
      },
      "geometry": {
        "type": "Point",
        "coordinates": [
          -73.39441377663537,
          -29.903543928370375
        ]
      }
    },
    {
      "type": "Feature",
      "properties": {
        "norad_id": 58663,
        "name": "TIANMU-1 22",
        "group": "weather",
        "lat": -20.87747156578991,
        "lon": 111.41015461501921,
        "alt_km": 488.4111151793795,
        "timestamp": "2025-12-23T11:34:47.829126+00:00",
        "meta_object_name": "TIANMU-1 22",
        "meta_object_id": "2023-208D",
        "meta_epoch": "2025-12-23T05:23:03.402816",
        "meta_mean_motion": 15.27773269,
        "meta_eccentricity": 0.0002876,
        "meta_inclination": 97.4388,
        "meta_ra_of_asc_node": 108.2961,
        "meta_arg_of_pericenter": 232.3779,
        "meta_mean_anomaly": 127.72,
        "meta_ephemeris_type": 0,
        "meta_classification_type": "U",
        "meta_norad_cat_id": 58663,
        "meta_element_set_no": 999,
        "meta_rev_at_epoch": 11043,
        "meta_bstar": 0.00034978,
        "meta_mean_motion_dot": 9.418e-05,
        "meta_mean_motion_ddot": 0,
        "tle_line1": "1 58663U 23208D   25357.22434494  .00009418  00000+0  34978-3 0  9992",
        "tle_line2": "2 58663  97.4388 108.2961 0002876 232.3779 127.7200 15.27773269110439"
      },
      "geometry": {
        "type": "Point",
        "coordinates": [
          111.41015461501921,
          -20.87747156578991
        ]
      }
    },
    {
      "type": "Feature",
      "properties": {
        "norad_id": 58700,
        "name": "TIANMU-1 15",
        "group": "weather",
        "lat": -15.38306418200029,
        "lon": -179.021844068103,
        "alt_km": 497.7277643890502,
        "timestamp": "2025-12-23T11:34:47.829141+00:00",
        "meta_object_name": "TIANMU-1 15",
        "meta_object_id": "2024-004A",
        "meta_epoch": "2025-12-23T05:20:48.718176",
        "meta_mean_motion": 15.24538592,
        "meta_eccentricity": 0.0005998,
        "meta_inclination": 97.4624,
        "meta_ra_of_asc_node": 178.6528,
        "meta_arg_of_pericenter": 245.5194,
        "meta_mean_anomaly": 114.5418,
        "meta_ephemeris_type": 0,
        "meta_classification_type": "U",
        "meta_norad_cat_id": 58700,
        "meta_element_set_no": 999,
        "meta_rev_at_epoch": 10894,
        "meta_bstar": 0.00029058,
        "meta_mean_motion_dot": 7.084e-05,
        "meta_mean_motion_ddot": 0,
        "tle_line1": "1 58700U 24004A   25357.22278609  .00007084  00000+0  29058-3 0  9993",
        "tle_line2": "2 58700  97.4624 178.6528 0005998 245.5194 114.5418 15.24538592108942"
      },
      "geometry": {
        "type": "Point",
        "coordinates": [
          -179.021844068103,
          -15.38306418200029
        ]
      }
    }
  ]
}